<?xml version="1.0" encoding="UTF-8"?>
<kml xmlns="http://www.opengis.net/kml/2.2">
  <Document>
    <name>日本</name>
    <description/>
    <Style id="icon-1899-0288D1-nodesc-normal">
      <IconStyle>
        <color>ffd18802</color>
        <scale>1</scale>
        <Icon>
          <href>https://www.gstatic.com/mapspro/images/stock/503-wht-blank_maps.png</href>
        </Icon>
        <hotSpot x="32" xunits="pixels" y="64" yunits="insetPixels"/>
      </IconStyle>
      <LabelStyle>
        <scale>0</scale>
      </LabelStyle>
      <BalloonStyle>
        <text><![CDATA[<h3>$[name]</h3>]]></text>
      </BalloonStyle>
    </Style>
    <Style id="icon-1899-0288D1-nodesc-highlight">
      <IconStyle>
        <color>ffd18802</color>
        <scale>1</scale>
        <Icon>
          <href>https://www.gstatic.com/mapspro/images/stock/503-wht-blank_maps.png</href>
        </Icon>
        <hotSpot x="32" xunits="pixels" y="64" yunits="insetPixels"/>
      </IconStyle>
      <LabelStyle>
        <scale>1</scale>
      </LabelStyle>
      <BalloonStyle>
        <text><![CDATA[<h3>$[name]</h3>]]></text>
      </BalloonStyle>
    </Style>
    <StyleMap id="icon-1899-0288D1-nodesc">
      <Pair>
        <key>normal</key>
        <styleUrl>#icon-1899-0288D1-nodesc-normal</styleUrl>
      </Pair>
      <Pair>
        <key>highlight</key>
        <styleUrl>#icon-1899-0288D1-nodesc-highlight</styleUrl>
      </Pair>
    </StyleMap>
    <Folder>
      <name>Untitled layer</name>
      <Placemark>
        <name>Starbucks Coffee - Shibuya Tsutaya</name>
        <styleUrl>#icon-1899-0288D1-nodesc</styleUrl>
        <Point>
          <coordinates>
            139.7004154,35.6598098,0
          </coordinates>
        </Point>
      </Placemark>
      <Placemark>
        <name>Toyosu Market</name>
        <styleUrl>#icon-1899-0288D1-nodesc</styleUrl>
        <Point>
          <coordinates>
            139.784281,35.6440911,0
          </coordinates>
        </Point>
      </Placemark>
      <Placemark>
        <name>Tokyo National Museum</name>
        <styleUrl>#icon-1899-0288D1-nodesc</styleUrl>
        <Point>
          <coordinates>
            139.7765215,35.7188351,0
          </coordinates>
        </Point>
      </Placemark>
      <Placemark>
        <name>Sensō-ji</name>
        <styleUrl>#icon-1899-0288D1-nodesc</styleUrl>
        <Point>
          <coordinates>
            139.7966553,35.7147651,0
          </coordinates>
        </Point>
      </Placemark>
      <Placemark>
        <name>Imperial Palace</name>
        <styleUrl>#icon-1899-0288D1-nodesc</styleUrl>
        <Point>
          <coordinates>
            139.7527995,35.685175,0
          </coordinates>
        </Point>
      </Placemark>
      <Placemark>
        <name>Ginza</name>
        <styleUrl>#icon-1899-0288D1-nodesc</styleUrl>
        <Point>
          <coordinates>
            139.7664859,35.6712228,0
          </coordinates>
        </Point>
      </Placemark>
      <Placemark>
        <name>Roppongi</name>
        <styleUrl>#icon-1899-0288D1-nodesc</styleUrl>
        <Point>
          <coordinates>
            139.7345469,35.6618586,0
          </coordinates>
        </Point>
      </Placemark>
      <Placemark>
        <name>Mori Art Museum</name>
        <styleUrl>#icon-1899-0288D1-nodesc</styleUrl>
        <Point>
          <coordinates>
            139.7292785,35.6604621,0
          </coordinates>
        </Point>
      </Placemark>
      <Placemark>
        <name>Ikebukuro</name>
        <styleUrl>#icon-1899-0288D1-nodesc</styleUrl>
        <Point>
          <coordinates>
            139.7077314,35.7348314,0
          </coordinates>
        </Point>
      </Placemark>
      <Placemark>
        <name>Akihabara Electric Town</name>
        <styleUrl>#icon-1899-0288D1-nodesc</styleUrl>
        <Point>
          <coordinates>
            139.7713703,35.6996473,0
          </coordinates>
        </Point>
      </Placemark>
      <Placemark>
        <name>Shinjuku Gyoen National Garden</name>
        <styleUrl>#icon-1899-0288D1-nodesc</styleUrl>
        <Point>
          <coordinates>
            139.7100517,35.6851763,0
          </coordinates>
        </Point>
      </Placemark>
      <Placemark>
        <name>Tokyo Tower</name>
        <styleUrl>#icon-1899-0288D1-nodesc</styleUrl>
        <Point>
          <coordinates>
            139.7454329,35.6585805,0
          </coordinates>
        </Point>
      </Placemark>
      <Placemark>
        <name>Harajuku</name>
        <styleUrl>#icon-1899-0288D1-nodesc</styleUrl>
        <Point>
          <coordinates>
            139.709008,35.6699682,0
          </coordinates>
        </Point>
      </Placemark>
      <Placemark>
        <name>Takeshita Street</name>
        <styleUrl>#icon-1899-0288D1-nodesc</styleUrl>
        <Point>
          <coordinates>
            139.7046761,35.6712601,0
          </coordinates>
        </Point>
      </Placemark>
      <Placemark>
        <name>Omote-Sando Avenue</name>
        <styleUrl>#icon-1899-0288D1-nodesc</styleUrl>
        <Point>
          <coordinates>
            139.707743,35.667355,0
          </coordinates>
        </Point>
      </Placemark>
      <Placemark>
        <name>Aoyama-dori Avenue</name>
        <styleUrl>#icon-1899-0288D1-nodesc</styleUrl>
        <Point>
          <coordinates>
            139.7231371,35.6723911,0
          </coordinates>
        </Point>
      </Placemark>
      <Placemark>
        <name>Shibuya</name>
        <styleUrl>#icon-1899-0288D1-nodesc</styleUrl>
        <Point>
          <coordinates>
            139.703795,35.6619707,0
          </coordinates>
        </Point>
      </Placemark>
      <Placemark>
        <name>Shibuya Hikarie</name>
        <styleUrl>#icon-1899-0288D1-nodesc</styleUrl>
        <Point>
          <coordinates>
            139.7037298,35.6591239,0
          </coordinates>
        </Point>
      </Placemark>
      <Placemark>
        <name>Machida Squirrel Garden</name>
        <styleUrl>#icon-1899-0288D1-nodesc</styleUrl>
        <Point>
          <coordinates>
            139.4496738,35.5780097,0
          </coordinates>
        </Point>
      </Placemark>
      <Placemark>
        <name>Tokyo Disneyland</name>
        <styleUrl>#icon-1899-0288D1-nodesc</styleUrl>
        <Point>
          <coordinates>
            139.8803943,35.6328964,0
          </coordinates>
        </Point>
      </Placemark>
      <Placemark>
        <name>Tokyo DisneySea</name>
        <styleUrl>#icon-1899-0288D1-nodesc</styleUrl>
        <Point>
          <coordinates>
            139.8850779,35.6267108,0
          </coordinates>
        </Point>
      </Placemark>
      <Placemark>
        <name>Kichijōji</name>
        <styleUrl>#icon-1899-0288D1-nodesc</styleUrl>
        <Point>
          <coordinates>
            139.5802054,35.704096,0
          </coordinates>
        </Point>
      </Placemark>
      <Placemark>
        <name>Ghibli Museum</name>
        <styleUrl>#icon-1899-0288D1-nodesc</styleUrl>
        <Point>
          <coordinates>
            139.5704317,35.696238,0
          </coordinates>
        </Point>
      </Placemark>
      <Placemark>
        <name>Mitsumine Shrine</name>
        <styleUrl>#icon-1899-0288D1-nodesc</styleUrl>
        <Point>
          <coordinates>
            138.9304719,35.9254539,0
          </coordinates>
        </Point>
      </Placemark>
      <Placemark>
        <name>Shinagawa Shrine</name>
        <styleUrl>#icon-1899-0288D1-nodesc</styleUrl>
        <Point>
          <coordinates>
            139.7397048,35.6184665,0
          </coordinates>
        </Point>
      </Placemark>
      <Placemark>
        <name>Shirokanedai</name>
        <styleUrl>#icon-1899-0288D1-nodesc</styleUrl>
        <Point>
          <coordinates>
            139.725607,35.6387581,0
          </coordinates>
        </Point>
      </Placemark>
      <Placemark>
        <name>Sengaku-ji</name>
        <styleUrl>#icon-1899-0288D1-nodesc</styleUrl>
        <Point>
          <coordinates>
            139.7363952,35.6377397,0
          </coordinates>
        </Point>
      </Placemark>
      <Placemark>
        <name>Meguro Parasitological Museum</name>
        <styleUrl>#icon-1899-0288D1-nodesc</styleUrl>
        <Point>
          <coordinates>
            139.7066661,35.6316814,0
          </coordinates>
        </Point>
      </Placemark>
      <Placemark>
        <name>Ōtori-jinja Shrine</name>
        <styleUrl>#icon-1899-0288D1-nodesc</styleUrl>
        <Point>
          <coordinates>
            139.7081078,35.6321524,0
          </coordinates>
        </Point>
      </Placemark>
      <Placemark>
        <name>National Diet Building</name>
        <styleUrl>#icon-1899-0288D1-nodesc</styleUrl>
        <Point>
          <coordinates>
            139.7453478,35.6753525,0
          </coordinates>
        </Point>
      </Placemark>
      <Placemark>
        <name>Akasaka Sacas</name>
        <styleUrl>#icon-1899-0288D1-nodesc</styleUrl>
        <Point>
          <coordinates>
            139.7351128,35.6728008,0
          </coordinates>
        </Point>
      </Placemark>
      <Placemark>
        <name>Tokyo Midtown</name>
        <styleUrl>#icon-1899-0288D1-nodesc</styleUrl>
        <Point>
          <coordinates>
            139.7308747,35.6659803,0
          </coordinates>
        </Point>
      </Placemark>
      <Placemark>
        <name>21_21 Design Sight</name>
        <styleUrl>#icon-1899-0288D1-nodesc</styleUrl>
        <Point>
          <coordinates>
            139.7305214,35.6675248,0
          </coordinates>
        </Point>
      </Placemark>
      <Placemark>
        <name>Maman by Louise Bourgeois</name>
        <styleUrl>#icon-1899-0288D1-nodesc</styleUrl>
        <Point>
          <coordinates>
            139.7296572,35.6610212,0
          </coordinates>
        </Point>
      </Placemark>
      <Placemark>
        <name>Roppongi Hills - Tokyo City View</name>
        <styleUrl>#icon-1899-0288D1-nodesc</styleUrl>
        <Point>
          <coordinates>
            139.7292907,35.6600712,0
          </coordinates>
        </Point>
      </Placemark>
      <Placemark>
        <name>Mōri Garden</name>
        <styleUrl>#icon-1899-0288D1-nodesc</styleUrl>
        <Point>
          <coordinates>
            139.7304934,35.6603225,0
          </coordinates>
        </Point>
      </Placemark>
      <Placemark>
        <name>Shibakoen</name>
        <styleUrl>#icon-1899-0288D1-nodesc</styleUrl>
        <Point>
          <coordinates>
            139.7485979,35.6571637,0
          </coordinates>
        </Point>
      </Placemark>
      <Placemark>
        <name>Kyū Shiba-rikyū Gardens</name>
        <styleUrl>#icon-1899-0288D1-nodesc</styleUrl>
        <Point>
          <coordinates>
            139.7587206,35.6549505,0
          </coordinates>
        </Point>
      </Placemark>
      <Placemark>
        <name>Hamarikyu Gardens</name>
        <styleUrl>#icon-1899-0288D1-nodesc</styleUrl>
        <Point>
          <coordinates>
            139.7634091,35.6596559,0
          </coordinates>
        </Point>
      </Placemark>
      <Placemark>
        <name>Kiyosumi Gardens</name>
        <styleUrl>#icon-1899-0288D1-nodesc</styleUrl>
        <Point>
          <coordinates>
            139.7972649,35.6809021,0
          </coordinates>
        </Point>
      </Placemark>
      <Placemark>
        <name>Museum of Contemporary Art Tokyo (MOT)</name>
        <styleUrl>#icon-1899-0288D1-nodesc</styleUrl>
        <Point>
          <coordinates>
            139.8081921,35.6797467,0
          </coordinates>
        </Point>
      </Placemark>
      <Placemark>
        <name>Fukagawa Edo Museum</name>
        <styleUrl>#icon-1899-0288D1-nodesc</styleUrl>
        <Point>
          <coordinates>
            139.8005921,35.6811859,0
          </coordinates>
        </Point>
      </Placemark>
      <Placemark>
        <name>Tomioka Hachiman Shrine</name>
        <styleUrl>#icon-1899-0288D1-nodesc</styleUrl>
        <Point>
          <coordinates>
            139.799519,35.6717809,0
          </coordinates>
        </Point>
      </Placemark>
      <Placemark>
        <name>Edo-Tokyo Museum</name>
        <styleUrl>#icon-1899-0288D1-nodesc</styleUrl>
        <Point>
          <coordinates>
            139.7957336,35.6965972,0
          </coordinates>
        </Point>
      </Placemark>
      <Placemark>
        <name>Sumō Museum</name>
        <styleUrl>#icon-1899-0288D1-nodesc</styleUrl>
        <Point>
          <coordinates>
            139.7931224,35.6971152,0
          </coordinates>
        </Point>
      </Placemark>
      <Placemark>
        <name>The Sumida Hokusai Museum</name>
        <styleUrl>#icon-1899-0288D1-nodesc</styleUrl>
        <Point>
          <coordinates>
            139.800414,35.6963313,0
          </coordinates>
        </Point>
      </Placemark>
      <Placemark>
        <name>Former Yasuda Garden</name>
        <styleUrl>#icon-1899-0288D1-nodesc</styleUrl>
        <Point>
          <coordinates>
            139.7937567,35.6983511,0
          </coordinates>
        </Point>
      </Placemark>
      <Placemark>
        <name>Kanda Jinbocho</name>
        <styleUrl>#icon-1899-0288D1-nodesc</styleUrl>
        <Point>
          <coordinates>
            139.7562635,35.696966,0
          </coordinates>
        </Point>
      </Placemark>
      <Placemark>
        <name>Akihabara Gachapon Hall</name>
        <styleUrl>#icon-1899-0288D1-nodesc</styleUrl>
        <Point>
          <coordinates>
            139.7712256,35.7018425,0
          </coordinates>
        </Point>
      </Placemark>
      <Placemark>
        <name>Mandarake Complex</name>
        <styleUrl>#icon-1899-0288D1-nodesc</styleUrl>
        <Point>
          <coordinates>
            139.7705031,35.7003733,0
          </coordinates>
        </Point>
      </Placemark>
      <Placemark>
        <name>Super Potato Akihabara Branch</name>
        <styleUrl>#icon-1899-0288D1-nodesc</styleUrl>
        <Point>
          <coordinates>
            139.7707015,35.6993585,0
          </coordinates>
        </Point>
      </Placemark>
      <Placemark>
        <name>Akihabara Gamers</name>
        <styleUrl>#icon-1899-0288D1-nodesc</styleUrl>
        <Point>
          <coordinates>
            139.7716604,35.6983011,0
          </coordinates>
        </Point>
      </Placemark>
      <Placemark>
        <name>Kyū-Iwasaki-tei Gardens</name>
        <styleUrl>#icon-1899-0288D1-nodesc</styleUrl>
        <Point>
          <coordinates>
            139.7675841,35.7099507,0
          </coordinates>
        </Point>
      </Placemark>
      <Placemark>
        <name>Marishiten Tokudaiji Temple</name>
        <styleUrl>#icon-1899-0288D1-nodesc</styleUrl>
        <Point>
          <coordinates>
            139.7745549,35.7085662,0
          </coordinates>
        </Point>
      </Placemark>
      <Placemark>
        <name>Yushima Tenjin Shrine</name>
        <styleUrl>#icon-1899-0288D1-nodesc</styleUrl>
        <Point>
          <coordinates>
            139.7682193,35.7077406,0
          </coordinates>
        </Point>
      </Placemark>
      <Placemark>
        <name>Ueno Zoo</name>
        <styleUrl>#icon-1899-0288D1-nodesc</styleUrl>
        <Point>
          <coordinates>
            139.772882,35.7160153,0
          </coordinates>
        </Point>
      </Placemark>
      <Placemark>
        <name>Shinobazu no Ike Bentendō</name>
        <styleUrl>#icon-1899-0288D1-nodesc</styleUrl>
        <Point>
          <coordinates>
            139.7710956,35.7121418,0
          </coordinates>
        </Point>
      </Placemark>
      <Placemark>
        <name>Kiyomizu Kannon-dō Temple</name>
        <styleUrl>#icon-1899-0288D1-nodesc</styleUrl>
        <Point>
          <coordinates>
            139.7735665,35.7126261,0
          </coordinates>
        </Point>
      </Placemark>
      <Placemark>
        <name>Tokyo National Museum</name>
        <styleUrl>#icon-1899-0288D1-nodesc</styleUrl>
        <Point>
          <coordinates>
            139.7765215,35.7188351,0
          </coordinates>
        </Point>
      </Placemark>
      <Placemark>
        <name>Tokyo Metropolitan Art Museum</name>
        <styleUrl>#icon-1899-0288D1-nodesc</styleUrl>
        <Point>
          <coordinates>
            139.7729387,35.7172113,0
          </coordinates>
        </Point>
      </Placemark>
      <Placemark>
        <name>Kanei-ji Temple</name>
        <styleUrl>#icon-1899-0288D1-nodesc</styleUrl>
        <Point>
          <coordinates>
            139.7746162,35.721753,0
          </coordinates>
        </Point>
      </Placemark>
      <Placemark>
        <name>Cafe Neko-e-mon</name>
        <styleUrl>#icon-1899-0288D1-nodesc</styleUrl>
        <Point>
          <coordinates>
            139.7675598,35.7237831,0
          </coordinates>
        </Point>
      </Placemark>
      <Placemark>
        <name>Kannon-ji</name>
        <styleUrl>#icon-1899-0288D1-nodesc</styleUrl>
        <Point>
          <coordinates>
            139.7680802,35.725618,0
          </coordinates>
        </Point>
      </Placemark>
      <Placemark>
        <name>Isetatsu</name>
        <styleUrl>#icon-1899-0288D1-nodesc</styleUrl>
        <Point>
          <coordinates>
            139.7649755,35.7243022,0
          </coordinates>
        </Point>
      </Placemark>
      <Placemark>
        <name>Nezu Shrine</name>
        <styleUrl>#icon-1899-0288D1-nodesc</styleUrl>
        <Point>
          <coordinates>
            139.7607695,35.7201366,0
          </coordinates>
        </Point>
      </Placemark>
      <Placemark>
        <name>Nakamise Shopping Street</name>
        <styleUrl>#icon-1899-0288D1-nodesc</styleUrl>
        <Point>
          <coordinates>
            139.7964542,35.7118413,0
          </coordinates>
        </Point>
      </Placemark>
      <Placemark>
        <name>Kappabashi Kitchen Supply Town</name>
        <styleUrl>#icon-1899-0288D1-nodesc</styleUrl>
        <Point>
          <coordinates>
            139.7879645,35.7105797,0
          </coordinates>
        </Point>
      </Placemark>
      <Placemark>
        <name>Hoppy Street</name>
        <styleUrl>#icon-1899-0288D1-nodesc</styleUrl>
        <Point>
          <coordinates>
            139.7941552,35.7139938,0
          </coordinates>
        </Point>
      </Placemark>
      <Placemark>
        <name>Rikugien Gardens</name>
        <styleUrl>#icon-1899-0288D1-nodesc</styleUrl>
        <Point>
          <coordinates>
            139.7457335,35.7331005,0
          </coordinates>
        </Point>
      </Placemark>
      <Placemark>
        <name>Kyu-Furukawa Gardens</name>
        <styleUrl>#icon-1899-0288D1-nodesc</styleUrl>
        <Point>
          <coordinates>
            139.7467687,35.7430327,0
          </coordinates>
        </Point>
      </Placemark>
      <Placemark>
        <name>Chiikawa Park</name>
        <styleUrl>#icon-1899-0288D1-nodesc</styleUrl>
        <Point>
          <coordinates>
            139.7173039,35.7298877,0
          </coordinates>
        </Point>
      </Placemark>
      <Placemark>
        <name>SUNSHINE 60 OBSERVATORY TENBOU-PARK</name>
        <styleUrl>#icon-1899-0288D1-nodesc</styleUrl>
        <Point>
          <coordinates>
            139.7183077,35.7292725,0
          </coordinates>
        </Point>
      </Placemark>
      <Placemark>
        <name><![CDATA[Pokémon Center Mega Tokyo & Pikachu Sweets]]></name>
        <styleUrl>#icon-1899-0288D1-nodesc</styleUrl>
        <Point>
          <coordinates>
            139.7193245,35.7289056,0
          </coordinates>
        </Point>
      </Placemark>
      <Placemark>
        <name>animate Ikebukuro Flagship Store</name>
        <styleUrl>#icon-1899-0288D1-nodesc</styleUrl>
        <Point>
          <coordinates>
            139.7154592,35.7311443,0
          </coordinates>
        </Point>
      </Placemark>
      <Placemark>
        <name>Tokyu Kabukicho Tower</name>
        <styleUrl>#icon-1899-0288D1-nodesc</styleUrl>
        <Point>
          <coordinates>
            139.7005894,35.6957513,0
          </coordinates>
        </Point>
      </Placemark>
      <Placemark>
        <name>Cross Shinjuku Vision</name>
        <styleUrl>#icon-1899-0288D1-nodesc</styleUrl>
        <Point>
          <coordinates>
            139.7008107,35.692642,0
          </coordinates>
        </Point>
      </Placemark>
      <Placemark>
        <name>Shinjuku Toho Building</name>
        <styleUrl>#icon-1899-0288D1-nodesc</styleUrl>
        <Point>
          <coordinates>
            139.7019686,35.6952926,0
          </coordinates>
        </Point>
      </Placemark>
      <Placemark>
        <name>2 Chome</name>
        <styleUrl>#icon-1899-0288D1-nodesc</styleUrl>
        <Point>
          <coordinates>
            139.7083697,35.6897887,0
          </coordinates>
        </Point>
      </Placemark>
      <Placemark>
        <name>Kabukicho</name>
        <styleUrl>#icon-1899-0288D1-nodesc</styleUrl>
        <Point>
          <coordinates>
            139.7026251,35.6960834,0
          </coordinates>
        </Point>
      </Placemark>
      <Placemark>
        <name>Tokyo Metropolitan Government Building No.1</name>
        <styleUrl>#icon-1899-0288D1-nodesc</styleUrl>
        <Point>
          <coordinates>
            139.6916863,35.6894807,0
          </coordinates>
        </Point>
      </Placemark>
      <Placemark>
        <name>Shimokitazawa</name>
        <styleUrl>#icon-1899-0288D1-nodesc</styleUrl>
        <Point>
          <coordinates>
            139.6698627,35.665786,0
          </coordinates>
        </Point>
      </Placemark>
      <Placemark>
        <name>Kagurazaka</name>
        <styleUrl>#icon-1899-0288D1-nodesc</styleUrl>
        <Point>
          <coordinates>
            139.7402946,35.7014598,0
          </coordinates>
        </Point>
      </Placemark>
      <Placemark>
        <name>Zenkoku-ji Temple</name>
        <styleUrl>#icon-1899-0288D1-nodesc</styleUrl>
        <Point>
          <coordinates>
            139.7394549,35.7015127,0
          </coordinates>
        </Point>
      </Placemark>
      <Placemark>
        <name>Sangenjaya</name>
        <styleUrl>#icon-1899-0288D1-nodesc</styleUrl>
        <Point>
          <coordinates>
            139.667531,35.6412539,0
          </coordinates>
        </Point>
      </Placemark>
      <Placemark>
        <name>Jiyugaoka</name>
        <styleUrl>#icon-1899-0288D1-nodesc</styleUrl>
        <Point>
          <coordinates>
            139.6668931,35.6105884,0
          </coordinates>
        </Point>
      </Placemark>
      <Placemark>
        <name>Jiyūgaoka Kumano-jinja Shrine</name>
        <styleUrl>#icon-1899-0288D1-nodesc</styleUrl>
        <Point>
          <coordinates>
            139.6688807,35.6106474,0
          </coordinates>
        </Point>
      </Placemark>
      <Placemark>
        <name>Meguro River</name>
        <styleUrl>#icon-1899-0288D1-nodesc</styleUrl>
        <Point>
          <coordinates>
            139.7141956,35.6299045,0
          </coordinates>
        </Point>
      </Placemark>
      <Placemark>
        <name>Kyu Asakura House</name>
        <styleUrl>#icon-1899-0288D1-nodesc</styleUrl>
        <Point>
          <coordinates>
            139.701534,35.6471947,0
          </coordinates>
        </Point>
      </Placemark>
      <Placemark>
        <name>Daikanyamacho</name>
        <styleUrl>#icon-1899-0288D1-nodesc</styleUrl>
        <Point>
          <coordinates>
            139.7042207,35.6505465,0
          </coordinates>
        </Point>
      </Placemark>
      <Placemark>
        <name>Yebisu Brewery Tokyo</name>
        <styleUrl>#icon-1899-0288D1-nodesc</styleUrl>
        <Point>
          <coordinates>
            139.7144118,35.6429178,0
          </coordinates>
        </Point>
      </Placemark>
      <Placemark>
        <name>Yebisu Garden Place</name>
        <styleUrl>#icon-1899-0288D1-nodesc</styleUrl>
        <Point>
          <coordinates>
            139.7138345,35.6424892,0
          </coordinates>
        </Point>
      </Placemark>
      <Placemark>
        <name>Mitsukoshi Ginza</name>
        <styleUrl>#icon-1899-0288D1-nodesc</styleUrl>
        <Point>
          <coordinates>
            139.7657382,35.6712864,0
          </coordinates>
        </Point>
      </Placemark>
      <Placemark>
        <name>Matsuya Ginza</name>
        <styleUrl>#icon-1899-0288D1-nodesc</styleUrl>
        <Point>
          <coordinates>
            139.7666526,35.6722621,0
          </coordinates>
        </Point>
      </Placemark>
      <Placemark>
        <name>Matsuya Ginza</name>
        <styleUrl>#icon-1899-0288D1-nodesc</styleUrl>
        <Point>
          <coordinates>
            139.7666526,35.6722621,0
          </coordinates>
        </Point>
      </Placemark>
      <Placemark>
        <name>Ginza Wako</name>
        <styleUrl>#icon-1899-0288D1-nodesc</styleUrl>
        <Point>
          <coordinates>
            139.7650442,35.671735,0
          </coordinates>
        </Point>
      </Placemark>
      <Placemark>
        <name>Kabuki-za</name>
        <styleUrl>#icon-1899-0288D1-nodesc</styleUrl>
        <Point>
          <coordinates>
            139.7677446,35.6694253,0
          </coordinates>
        </Point>
      </Placemark>
      <Placemark>
        <name>Nihonbashi</name>
        <styleUrl>#icon-1899-0288D1-nodesc</styleUrl>
        <Point>
          <coordinates>
            139.7741538,35.6811836,0
          </coordinates>
        </Point>
      </Placemark>
      <Placemark>
        <name>Tokyo Station Marunouchi Building</name>
        <styleUrl>#icon-1899-0288D1-nodesc</styleUrl>
        <Point>
          <coordinates>
            139.7659944,35.6814247,0
          </coordinates>
        </Point>
      </Placemark>
      <Placemark>
        <name>The Tokyo Station Hotel</name>
        <styleUrl>#icon-1899-0288D1-nodesc</styleUrl>
        <Point>
          <coordinates>
            139.7658873,35.6809928,0
          </coordinates>
        </Point>
      </Placemark>
      <Placemark>
        <name>KITTE Marunouchi</name>
        <styleUrl>#icon-1899-0288D1-nodesc</styleUrl>
        <Point>
          <coordinates>
            139.764865,35.6797983,0
          </coordinates>
        </Point>
      </Placemark>
      <Placemark>
        <name>Marunouchi Building</name>
        <styleUrl>#icon-1899-0288D1-nodesc</styleUrl>
        <Point>
          <coordinates>
            139.7638027,35.6810403,0
          </coordinates>
        </Point>
      </Placemark>
      <Placemark>
        <name>Shin-Marunouchi Building</name>
        <styleUrl>#icon-1899-0288D1-nodesc</styleUrl>
        <Point>
          <coordinates>
            139.7642436,35.6826212,0
          </coordinates>
        </Point>
      </Placemark>
      <Placemark>
        <name>Mitsubishi Ichigokan Museum</name>
        <styleUrl>#icon-1899-0288D1-nodesc</styleUrl>
        <Point>
          <coordinates>
            139.7633347,35.6785286,0
          </coordinates>
        </Point>
      </Placemark>
      <Placemark>
        <name>Suitengu Shrine</name>
        <styleUrl>#icon-1899-0288D1-nodesc</styleUrl>
        <Point>
          <coordinates>
            139.7850214,35.6836567,0
          </coordinates>
        </Point>
      </Placemark>
      <Placemark>
        <name>NTV Tower</name>
        <styleUrl>#icon-1899-0288D1-nodesc</styleUrl>
        <Point>
          <coordinates>
            139.759944,35.664366,0
          </coordinates>
        </Point>
      </Placemark>
      <Placemark>
        <name>Fuji Television Network, Inc.</name>
        <styleUrl>#icon-1899-0288D1-nodesc</styleUrl>
        <Point>
          <coordinates>
            139.774056,35.626605,0
          </coordinates>
        </Point>
      </Placemark>
      <Placemark>
        <name>TOKYO TRICK ART MUSEUM</name>
        <styleUrl>#icon-1899-0288D1-nodesc</styleUrl>
        <Point>
          <coordinates>
            139.7759412,35.6292379,0
          </coordinates>
        </Point>
      </Placemark>
      <Placemark>
        <name>DiverCity Tokyo Plaza</name>
        <styleUrl>#icon-1899-0288D1-nodesc</styleUrl>
        <Point>
          <coordinates>
            139.7758551,35.6247851,0
          </coordinates>
        </Point>
      </Placemark>
      <Placemark>
        <name>Museum of Emerging Science and Innovation</name>
        <styleUrl>#icon-1899-0288D1-nodesc</styleUrl>
        <Point>
          <coordinates>
            139.7763995,35.6193359,0
          </coordinates>
        </Point>
      </Placemark>
      <Placemark>
        <name>TOYOTA ARENA TOKYO</name>
        <styleUrl>#icon-1899-0288D1-nodesc</styleUrl>
        <Point>
          <coordinates>
            139.7830948,35.6262965,0
          </coordinates>
        </Point>
      </Placemark>
      <Placemark>
        <name>Hachiko Statue</name>
        <styleUrl>#icon-1899-0288D1-nodesc</styleUrl>
        <Point>
          <coordinates>
            139.7006293,35.6590579,0
          </coordinates>
        </Point>
      </Placemark>
      <Placemark>
        <name>NHK Studio Park</name>
        <styleUrl>#icon-1899-0288D1-nodesc</styleUrl>
        <Point>
          <coordinates>
            139.696747,35.66512,0
          </coordinates>
        </Point>
      </Placemark>
      <Placemark>
        <name>Shibuya Chuo-Gai</name>
        <styleUrl>#icon-1899-0288D1-nodesc</styleUrl>
        <Point>
          <coordinates>
            139.7000912,35.6579658,0
          </coordinates>
        </Point>
      </Placemark>
      <Placemark>
        <name>Loft</name>
        <styleUrl>#icon-1899-0288D1-nodesc</styleUrl>
        <Point>
          <coordinates>
            139.6997226,35.6609346,0
          </coordinates>
        </Point>
      </Placemark>
      <Placemark>
        <name>Shibuya Crossing</name>
        <styleUrl>#icon-1899-0288D1-nodesc</styleUrl>
        <Point>
          <coordinates>
            139.7005596,35.659482,0
          </coordinates>
        </Point>
      </Placemark>
      <Placemark>
        <name>Shibuya Parco</name>
        <styleUrl>#icon-1899-0288D1-nodesc</styleUrl>
        <Point>
          <coordinates>
            139.6987767,35.6620484,0
          </coordinates>
        </Point>
      </Placemark>
      <Placemark>
        <name>Miyashita Park</name>
        <styleUrl>#icon-1899-0288D1-nodesc</styleUrl>
        <Point>
          <coordinates>
            139.7018507,35.661791,0
          </coordinates>
        </Point>
      </Placemark>
      <Placemark>
        <name>Shibuya Sky</name>
        <styleUrl>#icon-1899-0288D1-nodesc</styleUrl>
        <Point>
          <coordinates>
            139.7019848,35.6586719,0
          </coordinates>
        </Point>
      </Placemark>
      <Placemark>
        <name>MAGNET by SHIBUYA109</name>
        <styleUrl>#icon-1899-0288D1-nodesc</styleUrl>
        <Point>
          <coordinates>
            139.7009365,35.6597925,0
          </coordinates>
        </Point>
      </Placemark>
      <Placemark>
        <name>SEIBU Shibuya Store</name>
        <styleUrl>#icon-1899-0288D1-nodesc</styleUrl>
        <Point>
          <coordinates>
            139.7003304,35.660227,0
          </coordinates>
        </Point>
      </Placemark>
      <Placemark>
        <name>Shibuya Hikarie</name>
        <styleUrl>#icon-1899-0288D1-nodesc</styleUrl>
        <Point>
          <coordinates>
            139.7037298,35.6591239,0
          </coordinates>
        </Point>
      </Placemark>
      <Placemark>
        <name>Hands Shibuya</name>
        <styleUrl>#icon-1899-0288D1-nodesc</styleUrl>
        <Point>
          <coordinates>
            139.6979319,35.6620337,0
          </coordinates>
        </Point>
      </Placemark>
      <Placemark>
        <name>Takeshita Street</name>
        <styleUrl>#icon-1899-0288D1-nodesc</styleUrl>
        <Point>
          <coordinates>
            139.7046761,35.6712601,0
          </coordinates>
        </Point>
      </Placemark>
      <Placemark>
        <name>Omote-Sando Avenue</name>
        <styleUrl>#icon-1899-0288D1-nodesc</styleUrl>
        <Point>
          <coordinates>
            139.707743,35.667355,0
          </coordinates>
        </Point>
      </Placemark>
      <Placemark>
        <name>Yoyogi Park</name>
        <styleUrl>#icon-1899-0288D1-nodesc</styleUrl>
        <Point>
          <coordinates>
            139.6949656,35.6700649,0
          </coordinates>
        </Point>
      </Placemark>
      <Placemark>
        <name>Nezu Museum</name>
        <styleUrl>#icon-1899-0288D1-nodesc</styleUrl>
        <Point>
          <coordinates>
            139.7170937,35.6622568,0
          </coordinates>
        </Point>
      </Placemark>
      <Placemark>
        <name>Meiji no Mori Takao Quasi-National Park</name>
        <styleUrl>#icon-1899-0288D1-nodesc</styleUrl>
        <Point>
          <coordinates>
            139.2407012,35.6276397,0
          </coordinates>
        </Point>
      </Placemark>
      <Placemark>
        <name>Takaosan Yakuōin Yūkiji Temple</name>
        <styleUrl>#icon-1899-0288D1-nodesc</styleUrl>
        <Point>
          <coordinates>
            139.2502861,35.6259039,0
          </coordinates>
        </Point>
      </Placemark>
      <Placemark>
        <name>十三州大見晴台</name>
        <styleUrl>#icon-1899-0288D1-nodesc</styleUrl>
        <Point>
          <coordinates>
            139.243645,35.625196,0
          </coordinates>
        </Point>
      </Placemark>
      <Placemark>
        <name>Okutama</name>
        <styleUrl>#icon-1899-0288D1-nodesc</styleUrl>
        <Point>
          <coordinates>
            139.0960592,35.8095021,0
          </coordinates>
        </Point>
      </Placemark>
      <Placemark>
        <name>Jindaiji Temple</name>
        <styleUrl>#icon-1899-0288D1-nodesc</styleUrl>
        <Point>
          <coordinates>
            139.5503942,35.6675048,0
          </coordinates>
        </Point>
      </Placemark>
      <Placemark>
        <name>Kokyo Gaien National Garden</name>
        <styleUrl>#icon-1899-0288D1-nodesc</styleUrl>
        <Point>
          <coordinates>
            139.7583125,35.680117,0
          </coordinates>
        </Point>
      </Placemark>
      <Placemark>
        <name>The National Museum of the Imperial Collections, Sannomaru Shozokan</name>
        <styleUrl>#icon-1899-0288D1-nodesc</styleUrl>
        <Point>
          <coordinates>
            139.7592442,35.6864261,0
          </coordinates>
        </Point>
      </Placemark>
      <Placemark>
        <name>Imperial Palace East National Gardens</name>
        <styleUrl>#icon-1899-0288D1-nodesc</styleUrl>
        <Point>
          <coordinates>
            139.7571445,35.6867824,0
          </coordinates>
        </Point>
      </Placemark>
      <Placemark>
        <name>Ginza Sony Park</name>
        <styleUrl>#icon-1899-0288D1-nodesc</styleUrl>
        <Point>
          <coordinates>
            139.7631115,35.6720765,0
          </coordinates>
        </Point>
      </Placemark>
      <Placemark>
        <name>Ad Museum Tokyo</name>
        <styleUrl>#icon-1899-0288D1-nodesc</styleUrl>
        <Point>
          <coordinates>
            139.762191,35.6647784,0
          </coordinates>
        </Point>
      </Placemark>
      <Placemark>
        <name>Panasonic Living Showroom Tokyo</name>
        <styleUrl>#icon-1899-0288D1-nodesc</styleUrl>
        <Point>
          <coordinates>
            139.7619308,35.6660314,0
          </coordinates>
        </Point>
      </Placemark>
      <Placemark>
        <name>TOTO Tokyo Center Show Room</name>
        <styleUrl>#icon-1899-0288D1-nodesc</styleUrl>
        <Point>
          <coordinates>
            139.6993978,35.6862605,0
          </coordinates>
        </Point>
      </Placemark>
      <Placemark>
        <name>Tokyo Metropolitan Government Building | North Observation Deck</name>
        <styleUrl>#icon-1899-0288D1-nodesc</styleUrl>
        <Point>
          <coordinates>
            139.6916563,35.689733,0
          </coordinates>
        </Point>
      </Placemark>
      <Placemark>
        <name>The Gundam Base Tokyo</name>
        <styleUrl>#icon-1899-0288D1-nodesc</styleUrl>
        <Point>
          <coordinates>
            139.7761383,35.6254768,0
          </coordinates>
        </Point>
      </Placemark>
      <Placemark>
        <name>Uffizi Galleries</name>
        <styleUrl>#icon-1899-0288D1-nodesc</styleUrl>
        <Point>
          <coordinates>
            11.2553108,43.7677856,0
          </coordinates>
        </Point>
      </Placemark>
      <Placemark>
        <name>Snoopy Museum Tokyo</name>
        <styleUrl>#icon-1899-0288D1-nodesc</styleUrl>
        <Point>
          <coordinates>
            139.4694843,35.5102487,0
          </coordinates>
        </Point>
      </Placemark>
      <Placemark>
        <name>Roppongi Hills - Tokyo City View</name>
        <styleUrl>#icon-1899-0288D1-nodesc</styleUrl>
        <Point>
          <coordinates>
            139.7292907,35.6600712,0
          </coordinates>
        </Point>
      </Placemark>
      <Placemark>
        <name>Tokyo Skytree Observation Deck</name>
        <styleUrl>#icon-1899-0288D1-nodesc</styleUrl>
        <Point>
          <coordinates>
            139.810694,35.7102266,0
          </coordinates>
        </Point>
      </Placemark>
      <Placemark>
        <name>World Trade Center Building, Inc.</name>
        <styleUrl>#icon-1899-0288D1-nodesc</styleUrl>
        <Point>
          <coordinates>
            139.7563434,35.6551747,0
          </coordinates>
        </Point>
      </Placemark>
      <Placemark>
        <name>Shiba Park</name>
        <styleUrl>#icon-1899-0288D1-nodesc</styleUrl>
        <Point>
          <coordinates>
            139.7483555,35.6561695,0
          </coordinates>
        </Point>
      </Placemark>
      <Placemark>
        <name>Roppongi Keyakizaka</name>
        <styleUrl>#icon-1899-0288D1-nodesc</styleUrl>
        <Point>
          <coordinates>
            139.730529,35.65922,0
          </coordinates>
        </Point>
      </Placemark>
      <Placemark>
        <name>Fish Market Tsukiji Outer Market</name>
        <styleUrl>#icon-1899-0288D1-nodesc</styleUrl>
        <Point>
          <coordinates>
            139.7702515,35.6647703,0
          </coordinates>
        </Point>
      </Placemark>
      <Placemark>
        <name>Edo Kōji</name>
        <styleUrl>#icon-1899-0288D1-nodesc</styleUrl>
        <Point>
          <coordinates>
            139.7692639,35.5452071,0
          </coordinates>
        </Point>
      </Placemark>
      <Placemark>
        <name>Tokyo Pop Town</name>
        <styleUrl>#icon-1899-0288D1-nodesc</styleUrl>
        <Point>
          <coordinates>
            139.7695253,35.5452104,0
          </coordinates>
        </Point>
      </Placemark>
      <Placemark>
        <name>屋内展望フロア「FLIGHT DECK TOKYO」</name>
        <styleUrl>#icon-1899-0288D1-nodesc</styleUrl>
        <Point>
          <coordinates>
            139.7889751,35.5511716,0
          </coordinates>
        </Point>
      </Placemark>
      <Placemark>
        <name>Nakagin Capsule Tower</name>
        <styleUrl>#icon-1899-0288D1-nodesc</styleUrl>
        <Point>
          <coordinates>
            139.7634715,35.6656357,0
          </coordinates>
        </Point>
      </Placemark>
      <Placemark>
        <name>Tokyo Daijingu Shrine</name>
        <styleUrl>#icon-1899-0288D1-nodesc</styleUrl>
        <Point>
          <coordinates>
            139.746891,35.6999858,0
          </coordinates>
        </Point>
      </Placemark>
      <Placemark>
        <name>Kotai Jingu (Ise Jingu Naiku, Inner Sanctuary)</name>
        <styleUrl>#icon-1899-0288D1-nodesc</styleUrl>
        <Point>
          <coordinates>
            136.7251851,34.4550157,0
          </coordinates>
        </Point>
      </Placemark>
      <Placemark>
        <name>Sanrio Puroland</name>
        <styleUrl>#icon-1899-0288D1-nodesc</styleUrl>
        <Point>
          <coordinates>
            139.429293,35.624512,0
          </coordinates>
        </Point>
      </Placemark>
      <Placemark>
        <name>Echigotsumaari Daichinogeijutsusai Kiyotsukyo Tunnel Information Center</name>
        <styleUrl>#icon-1899-0288D1-nodesc</styleUrl>
        <Point>
          <coordinates>
            138.7499559,36.9737039,0
          </coordinates>
        </Point>
      </Placemark>
      <Placemark>
        <name>Hikan Inari-jinja Shrine</name>
        <styleUrl>#icon-1899-0288D1-nodesc</styleUrl>
        <Point>
          <coordinates>
            139.7977687,35.7153008,0
          </coordinates>
        </Point>
      </Placemark>
      <Placemark>
        <name>Kabuki Inari Shrine</name>
        <styleUrl>#icon-1899-0288D1-nodesc</styleUrl>
        <Point>
          <coordinates>
            139.7678442,35.6692292,0
          </coordinates>
        </Point>
      </Placemark>
      <Placemark>
        <name>Fushimi Inari Taisha</name>
        <styleUrl>#icon-1899-0288D1-nodesc</styleUrl>
        <Point>
          <coordinates>
            135.7791876,34.9676945,0
          </coordinates>
        </Point>
      </Placemark>
      <Placemark>
        <name>Senbon Torii (Thousand Torii Gates)</name>
        <styleUrl>#icon-1899-0288D1-nodesc</styleUrl>
        <Point>
          <coordinates>
            135.7746595,34.9670429,0
          </coordinates>
        </Point>
      </Placemark>
      <Placemark>
        <name>Toyokawa Inari (Myōgon-ji Temple)</name>
        <styleUrl>#icon-1899-0288D1-nodesc</styleUrl>
        <Point>
          <coordinates>
            137.3919618,34.8245842,0
          </coordinates>
        </Point>
      </Placemark>
      <Placemark>
        <name>Yūtoku Inari Shrine</name>
        <styleUrl>#icon-1899-0288D1-nodesc</styleUrl>
        <Point>
          <coordinates>
            130.1079317,33.073778,0
          </coordinates>
        </Point>
      </Placemark>
      <Placemark>
        <name>Kasama Inari Shrine</name>
        <styleUrl>#icon-1899-0288D1-nodesc</styleUrl>
        <Point>
          <coordinates>
            140.2541541,36.386156,0
          </coordinates>
        </Point>
      </Placemark>
      <Placemark>
        <name>Seimei Shrine</name>
        <styleUrl>#icon-1899-0288D1-nodesc</styleUrl>
        <Point>
          <coordinates>
            135.7511802,35.02776,0
          </coordinates>
        </Point>
      </Placemark>
      <Placemark>
        <name>Dazaifu Tenmangu Shrine</name>
        <styleUrl>#icon-1899-0288D1-nodesc</styleUrl>
        <Point>
          <coordinates>
            130.5348239,33.5213697,0
          </coordinates>
        </Point>
      </Placemark>
      <Placemark>
        <name>Tenkai Inari Shrine</name>
        <styleUrl>#icon-1899-0288D1-nodesc</styleUrl>
        <Point>
          <coordinates>
            130.5379206,33.5229717,0
          </coordinates>
        </Point>
      </Placemark>
      <Placemark>
        <name>Zaō Fox Village</name>
        <styleUrl>#icon-1899-0288D1-nodesc</styleUrl>
        <Point>
          <coordinates>
            140.5303604,38.0408293,0
          </coordinates>
        </Point>
      </Placemark>
      <Placemark>
        <name>Okama</name>
        <styleUrl>#icon-1899-0288D1-nodesc</styleUrl>
        <Point>
          <coordinates>
            140.4495672,38.1361549,0
          </coordinates>
        </Point>
      </Placemark>
      <Placemark>
        <name>Tonogayato Garden</name>
        <styleUrl>#icon-1899-0288D1-nodesc</styleUrl>
        <Point>
          <coordinates>
            139.4820138,35.6985591,0
          </coordinates>
        </Point>
      </Placemark>
      <Placemark>
        <name>Yanaka Cemetery</name>
        <styleUrl>#icon-1899-0288D1-nodesc</styleUrl>
        <Point>
          <coordinates>
            139.7702991,35.7240044,0
          </coordinates>
        </Point>
      </Placemark>
      <Placemark>
        <name>Bunkyo City Office</name>
        <styleUrl>#icon-1899-0288D1-nodesc</styleUrl>
        <Point>
          <coordinates>
            139.752123,35.708139,0
          </coordinates>
        </Point>
      </Placemark>
      <Placemark>
        <name>Inokashira Park</name>
        <styleUrl>#icon-1899-0288D1-nodesc</styleUrl>
        <Point>
          <coordinates>
            139.5737018,35.6997476,0
          </coordinates>
        </Point>
      </Placemark>
      <Placemark>
        <name>Yurakucho</name>
        <styleUrl>#icon-1899-0288D1-nodesc</styleUrl>
        <Point>
          <coordinates>
            139.7620134,35.6745957,0
          </coordinates>
        </Point>
      </Placemark>
      <Placemark>
        <name>2k540 Aki-Oka Artisan</name>
        <styleUrl>#icon-1899-0288D1-nodesc</styleUrl>
        <Point>
          <coordinates>
            139.774044,35.7031798,0
          </coordinates>
        </Point>
      </Placemark>
      <Placemark>
        <name>East Ikebukuro Central Park</name>
        <styleUrl>#icon-1899-0288D1-nodesc</styleUrl>
        <Point>
          <coordinates>
            139.7186911,35.7301591,0
          </coordinates>
        </Point>
      </Placemark>
      <Placemark>
        <name>National Museum of Nature and Science</name>
        <styleUrl>#icon-1899-0288D1-nodesc</styleUrl>
        <Point>
          <coordinates>
            139.7763336,35.7164273,0
          </coordinates>
        </Point>
      </Placemark>
      <Placemark>
        <name>Fujiko · F · Fujio Museum</name>
        <styleUrl>#icon-1899-0288D1-nodesc</styleUrl>
        <Point>
          <coordinates>
            139.5735723,35.6099229,0
          </coordinates>
        </Point>
      </Placemark>
      <Placemark>
        <name>Kamakura High School</name>
        <styleUrl>#icon-1899-0288D1-nodesc</styleUrl>
        <Point>
          <coordinates>
            139.5038731,35.3086832,0
          </coordinates>
        </Point>
      </Placemark>
      <Placemark>
        <name>Kamakurakōkō-Mae Station</name>
        <styleUrl>#icon-1899-0288D1-nodesc</styleUrl>
        <Point>
          <coordinates>
            139.5005569,35.3067242,0
          </coordinates>
        </Point>
      </Placemark>
      <Placemark>
        <name>Hakone-Yumoto Station</name>
        <styleUrl>#icon-1899-0288D1-nodesc</styleUrl>
        <Point>
          <coordinates>
            139.1035878,35.2332816,0
          </coordinates>
        </Point>
      </Placemark>
      <Placemark>
        <name>Imperial Theatre</name>
        <styleUrl>#icon-1899-0288D1-nodesc</styleUrl>
        <Point>
          <coordinates>
            139.7609048,35.6765761,0
          </coordinates>
        </Point>
      </Placemark>
      <Placemark>
        <name>Ginza Itoya</name>
        <styleUrl>#icon-1899-0288D1-nodesc</styleUrl>
        <Point>
          <coordinates>
            139.7672138,35.6731273,0
          </coordinates>
        </Point>
      </Placemark>
      <Placemark>
        <name>Imado Shrine</name>
        <styleUrl>#icon-1899-0288D1-nodesc</styleUrl>
        <Point>
          <coordinates>
            139.8035323,35.7193219,0
          </coordinates>
        </Point>
      </Placemark>
      <Placemark>
        <name>Togo Shrine</name>
        <styleUrl>#icon-1899-0288D1-nodesc</styleUrl>
        <Point>
          <coordinates>
            139.7058439,35.6717402,0
          </coordinates>
        </Point>
      </Placemark>
      <Placemark>
        <name>Kokuryo Shrine</name>
        <styleUrl>#icon-1899-0288D1-nodesc</styleUrl>
        <Point>
          <coordinates>
            139.5523802,35.6528086,0
          </coordinates>
        </Point>
      </Placemark>
      <Placemark>
        <name>First Avenue Tokyo Station</name>
        <styleUrl>#icon-1899-0288D1-nodesc</styleUrl>
        <Point>
          <coordinates>
            139.7684903,35.6822889,0
          </coordinates>
        </Point>
      </Placemark>
      <Placemark>
        <name>Hatsushima</name>
        <styleUrl>#icon-1899-0288D1-nodesc</styleUrl>
        <Point>
          <coordinates>
            139.1714529,35.0405168,0
          </coordinates>
        </Point>
      </Placemark>
      <Placemark>
        <name>Kinugawa Onsen</name>
        <styleUrl>#icon-1899-0288D1-nodesc</styleUrl>
        <Point>
          <coordinates>
            139.7158059,36.8238284,0
          </coordinates>
        </Point>
      </Placemark>
      <Placemark>
        <name>Nikkō Tōshōgū</name>
        <styleUrl>#icon-1899-0288D1-nodesc</styleUrl>
        <Point>
          <coordinates>
            139.5987466,36.7580878,0
          </coordinates>
        </Point>
      </Placemark>
      <Placemark>
        <name>二荒山神社 社標</name>
        <styleUrl>#icon-1899-0288D1-nodesc</styleUrl>
        <Point>
          <coordinates>
            139.5967086,36.7576432,0
          </coordinates>
        </Point>
      </Placemark>
      <Placemark>
        <name>Lake Chūzenji</name>
        <styleUrl>#icon-1899-0288D1-nodesc</styleUrl>
        <Point>
          <coordinates>
            139.4821986,36.7329036,0
          </coordinates>
        </Point>
      </Placemark>
      <Placemark>
        <name>Kegon Waterfalls</name>
        <styleUrl>#icon-1899-0288D1-nodesc</styleUrl>
        <Point>
          <coordinates>
            139.501941,36.7380893,0
          </coordinates>
        </Point>
      </Placemark>
      <Placemark>
        <name>Edo Wonderland Nikko Edomura</name>
        <styleUrl>#icon-1899-0288D1-nodesc</styleUrl>
        <Point>
          <coordinates>
            139.6973346,36.7908146,0
          </coordinates>
        </Point>
      </Placemark>
      <Placemark>
        <name>Tobu World Square</name>
        <styleUrl>#icon-1899-0288D1-nodesc</styleUrl>
        <Point>
          <coordinates>
            139.7111335,36.80804,0
          </coordinates>
        </Point>
      </Placemark>
      <Placemark>
        <name>Yokohama Chinatown</name>
        <styleUrl>#icon-1899-0288D1-nodesc</styleUrl>
        <Point>
          <coordinates>
            139.6441001,35.4430883,0
          </coordinates>
        </Point>
      </Placemark>
      <Placemark>
        <name>Motomachi</name>
        <styleUrl>#icon-1899-0288D1-nodesc</styleUrl>
        <Point>
          <coordinates>
            139.6499917,35.4398189,0
          </coordinates>
        </Point>
      </Placemark>
      <Placemark>
        <name>Yamatecho</name>
        <styleUrl>#icon-1899-0288D1-nodesc</styleUrl>
        <Point>
          <coordinates>
            139.6483975,35.437167,0
          </coordinates>
        </Point>
      </Placemark>
      <Placemark>
        <name>Yokohama Red Brick Warehouse</name>
        <styleUrl>#icon-1899-0288D1-nodesc</styleUrl>
        <Point>
          <coordinates>
            139.6428944,35.4526321,0
          </coordinates>
        </Point>
      </Placemark>
      <Placemark>
        <name>Yokohama Bay Bridge</name>
        <styleUrl>#icon-1899-0288D1-nodesc</styleUrl>
        <Point>
          <coordinates>
            139.6735336,35.4539493,0
          </coordinates>
        </Point>
      </Placemark>
      <Placemark>
        <name>YOKOHAMA AIR CABIN Sakuragicho Station</name>
        <styleUrl>#icon-1899-0288D1-nodesc</styleUrl>
        <Point>
          <coordinates>
            139.6314264,35.4514291,0
          </coordinates>
        </Point>
      </Placemark>
      <Placemark>
        <name>Hase Temple</name>
        <styleUrl>#icon-1899-0288D1-nodesc</styleUrl>
        <Point>
          <coordinates>
            139.5330634,35.3124645,0
          </coordinates>
        </Point>
      </Placemark>
      <Placemark>
        <name>Houkokuji</name>
        <styleUrl>#icon-1899-0288D1-nodesc</styleUrl>
        <Point>
          <coordinates>
            139.5692379,35.3199921,0
          </coordinates>
        </Point>
      </Placemark>
      <Placemark>
        <name>Kotoku-in</name>
        <styleUrl>#icon-1899-0288D1-nodesc</styleUrl>
        <Point>
          <coordinates>
            139.5357442,35.3168145,0
          </coordinates>
        </Point>
      </Placemark>
      <Placemark>
        <name>Meigetsu-in</name>
        <styleUrl>#icon-1899-0288D1-nodesc</styleUrl>
        <Point>
          <coordinates>
            139.5515225,35.3348896,0
          </coordinates>
        </Point>
      </Placemark>
      <Placemark>
        <name>Kenchō-ji</name>
        <styleUrl>#icon-1899-0288D1-nodesc</styleUrl>
        <Point>
          <coordinates>
            139.5549354,35.3314541,0
          </coordinates>
        </Point>
      </Placemark>
      <Placemark>
        <name>Engaku-ji</name>
        <styleUrl>#icon-1899-0288D1-nodesc</styleUrl>
        <Point>
          <coordinates>
            139.5475251,35.3377255,0
          </coordinates>
        </Point>
      </Placemark>
      <Placemark>
        <name>Tsurugaoka Hachimangu</name>
        <styleUrl>#icon-1899-0288D1-nodesc</styleUrl>
        <Point>
          <coordinates>
            139.5563462,35.3259856,0
          </coordinates>
        </Point>
      </Placemark>
      <Placemark>
        <name>Enoshima</name>
        <styleUrl>#icon-1899-0288D1-nodesc</styleUrl>
        <Point>
          <coordinates>
            139.4809269,35.2990992,0
          </coordinates>
        </Point>
      </Placemark>
      <Placemark>
        <name>Enoshima Shrine Hetsumiya</name>
        <styleUrl>#icon-1899-0288D1-nodesc</styleUrl>
        <Point>
          <coordinates>
            139.4795955,35.3003664,0
          </coordinates>
        </Point>
      </Placemark>
      <Placemark>
        <name>Kawagoe</name>
        <styleUrl>#icon-1899-0288D1-nodesc</styleUrl>
        <Point>
          <coordinates>
            139.4858042,35.9251335,0
          </coordinates>
        </Point>
      </Placemark>
      <Placemark>
        <name>Lake Okutama</name>
        <styleUrl>#icon-1899-0288D1-nodesc</styleUrl>
        <Point>
          <coordinates>
            139.0375259,35.7798056,0
          </coordinates>
        </Point>
      </Placemark>
      <Placemark>
        <name>Akigawa Valley</name>
        <styleUrl>#icon-1899-0288D1-nodesc</styleUrl>
        <Point>
          <coordinates>
            139.1897668,35.7265758,0
          </coordinates>
        </Point>
      </Placemark>
      <Placemark>
        <name>Mount Mitake</name>
        <styleUrl>#icon-1899-0288D1-nodesc</styleUrl>
        <Point>
          <coordinates>
            139.1495027,35.7829416,0
          </coordinates>
        </Point>
      </Placemark>
      <Placemark>
        <name>Fussa Base Side Street</name>
        <styleUrl>#icon-1899-0288D1-nodesc</styleUrl>
        <Point>
          <coordinates>
            139.3392829,35.7367385,0
          </coordinates>
        </Point>
      </Placemark>
      <Placemark>
        <name>Showa Kinen Park</name>
        <styleUrl>#icon-1899-0288D1-nodesc</styleUrl>
        <Point>
          <coordinates>
            139.393631,35.7117865,0
          </coordinates>
        </Point>
      </Placemark>
      <Placemark>
        <name>Tamon</name>
        <styleUrl>#icon-1899-0288D1-nodesc</styleUrl>
        <Point>
          <coordinates>
            139.5514506,35.6662982,0
          </coordinates>
        </Point>
      </Placemark>
      <Placemark>
        <name>Ganso Food Sample Shop Kappabashi Showroom</name>
        <styleUrl>#icon-1899-0288D1-nodesc</styleUrl>
        <Point>
          <coordinates>
            139.7891014,35.714885,0
          </coordinates>
        </Point>
      </Placemark>
      <Placemark>
        <name>Little Museum of Glass Art Books</name>
        <styleUrl>#icon-1899-0288D1-nodesc</styleUrl>
        <Point>
          <coordinates>
            139.8021081,35.7088924,0
          </coordinates>
        </Point>
      </Placemark>
      <Placemark>
        <name>Sumida Edo Kiriko Museum</name>
        <styleUrl>#icon-1899-0288D1-nodesc</styleUrl>
        <Point>
          <coordinates>
            139.8130344,35.7012575,0
          </coordinates>
        </Point>
      </Placemark>
      <Placemark>
        <name>Shinohara Furin Honpo</name>
        <styleUrl>#icon-1899-0288D1-nodesc</styleUrl>
        <Point>
          <coordinates>
            139.902208,35.6990202,0
          </coordinates>
        </Point>
      </Placemark>
      <Placemark>
        <name>Kabuki-za</name>
        <styleUrl>#icon-1899-0288D1-nodesc</styleUrl>
        <Point>
          <coordinates>
            139.7677446,35.6694253,0
          </coordinates>
        </Point>
      </Placemark>
      <Placemark>
        <name>National Engei Hall</name>
        <styleUrl>#icon-1899-0288D1-nodesc</styleUrl>
        <Point>
          <coordinates>
            139.7426498,35.6807825,0
          </coordinates>
        </Point>
      </Placemark>
      <Placemark>
        <name>Tokyo Metropolitan Theatre</name>
        <styleUrl>#icon-1899-0288D1-nodesc</styleUrl>
        <Point>
          <coordinates>
            139.7080751,35.729842,0
          </coordinates>
        </Point>
      </Placemark>
      <Placemark>
        <name>Sukiyabashi Jiro</name>
        <styleUrl>#icon-1899-0288D1-nodesc</styleUrl>
        <Point>
          <coordinates>
            139.7639378,35.6727404,0
          </coordinates>
        </Point>
      </Placemark>
      <Placemark>
        <name>Nodaiwa Azabu Iikura Honten</name>
        <styleUrl>#icon-1899-0288D1-nodesc</styleUrl>
        <Point>
          <coordinates>
            139.7433709,35.6581233,0
          </coordinates>
        </Point>
      </Placemark>
      <Placemark>
        <name>Mikawa Zezankyo</name>
        <styleUrl>#icon-1899-0288D1-nodesc</styleUrl>
        <Point>
          <coordinates>
            139.7930708,35.675456,0
          </coordinates>
        </Point>
      </Placemark>
      <Placemark>
        <name>Amezaiku Yoshihara Sendagi Main Store</name>
        <styleUrl>#icon-1899-0288D1-nodesc</styleUrl>
        <Point>
          <coordinates>
            139.760796,35.725004,0
          </coordinates>
        </Point>
      </Placemark>
      <Placemark>
        <name>Wakabado</name>
        <styleUrl>#icon-1899-0288D1-nodesc</styleUrl>
        <Point>
          <coordinates>
            139.8036885,35.7481629,0
          </coordinates>
        </Point>
      </Placemark>
      <Placemark>
        <name>Ozu Washi</name>
        <styleUrl>#icon-1899-0288D1-nodesc</styleUrl>
        <Point>
          <coordinates>
            139.7764384,35.6887901,0
          </coordinates>
        </Point>
      </Placemark>
      <Placemark>
        <name>染の里おちあい</name>
        <styleUrl>#icon-1899-0288D1-nodesc</styleUrl>
        <Point>
          <coordinates>
            139.689586,35.7152566,0
          </coordinates>
        </Point>
      </Placemark>
      <Placemark>
        <name>Sogetsu Foundation</name>
        <styleUrl>#icon-1899-0288D1-nodesc</styleUrl>
        <Point>
          <coordinates>
            139.7294188,35.6741496,0
          </coordinates>
        </Point>
      </Placemark>
      <Placemark>
        <name>Origami Museum</name>
        <styleUrl>#icon-1899-0288D1-nodesc</styleUrl>
        <Point>
          <coordinates>
            139.7655305,35.7029476,0
          </coordinates>
        </Point>
      </Placemark>
      <Placemark>
        <name>Kancha</name>
        <styleUrl>#icon-1899-0288D1-nodesc</styleUrl>
        <Point>
          <coordinates>
            139.7705861,35.7200953,0
          </coordinates>
        </Point>
      </Placemark>
    </Folder>
  </Document>
</kml>
